NORAD_CAT_ID,OBJECT_NAME,OBJECT_TYPE,EPOCH,MEAN_MOTION,ECCENTRICITY,INCLINATION,RA_OF_ASC_NODE,ARG_OF_PERICENTER,MEAN_ANOMALY,BSTAR,MEAN_MOTION_DOT,MEAN_MOTION_DDOT,TLE_LINE0,TLE_LINE1,TLE_LINE2,SEMIMAJOR_AXIS,PERIOD,APOGEE,PERIGEE,DECAYED
54173.0,STARLINK-5242,PAYLOAD,2024-03-23 21:36:03,15.08834935,0.0001296,53.2192,337.0,118.5935,241.5188,0.00022473,3.29e-05,0.0,0 STARLINK-5242,1 54173U 22141S   24083.90004305  .00003290  00000-0  22473-3 0  9993,2 54173  53.2192 337.0000 0001296 118.5935 241.5188 15.08834935 77804,6917.896,95.438,540.657,538.864,0.0
54173.0,STARLINK-5242,PAYLOAD,2024-03-23 23:11:26,15.08845078,0.0001566,53.2186,336.7051,80.9696,279.1474,-6.1405e-05,-1.265e-05,0.0,0 STARLINK-5242,1 54173U 22141S   24083.96627857 -.00001265  00000-0 -61405-4 0  9993,2 54173  53.2186 336.7051 0001566  80.9696 279.1474 15.08845078 77811,6917.865,95.437,540.813,538.647,0.0
54173.0,STARLINK-5242,PAYLOAD,2024-03-24 10:19:08,15.08835379,0.0001522,53.22,334.6222,96.1672,263.9494,-4.9498e-05,-1.076e-05,0.0,0 STARLINK-5242,1 54173U 22141S   24084.42996189 -.00001076  00000-0 -49498-4 0  9990,2 54173  53.2200 334.6222 0001522  96.1672 263.9494 15.08835379 77883,6917.895,95.438,540.812,538.707,0.0
54173.0,STARLINK-5242,PAYLOAD,2024-03-24 23:02:14,15.08841178,0.0001418,53.2176,332.2444,95.3913,264.7241,0.00020421,2.964e-05,0.0,0 STARLINK-5242,1 54173U 22141S   24084.95988580  .00002964  00000-0  20421-3 0  9993,2 54173  53.2176 332.2444 0001418  95.3913 264.7241 15.08841178 77960,6917.877,95.437,540.723,538.761,0.0
54173.0,STARLINK-5242,PAYLOAD,2024-03-25 19:42:13,15.08877188,0.0001401,53.2179,328.3795,79.1114,281.0036,0.00082712,0.00012913,0.0,0 STARLINK-5242,1 54173U 22141S   24085.82098671  .00012913  00000-0  82712-3 0  9999,2 54173  53.2179 328.3795 0001401  79.1114 281.0036 15.08877188 78092,6917.767,95.435,540.601,538.663,0.0
54173.0,STARLINK-5242,PAYLOAD,2024-03-25 21:17:37,15.08845382,0.0001531,53.2171,328.0819,80.1149,280.0016,0.00011087,1.477e-05,0.0,0 STARLINK-5242,1 54173U 22141S   24085.88723408  .00001477  00000-0  11087-3 0  9998,2 54173  53.2171 328.0819 0001531  80.1149 280.0016 15.08845382 78102,6917.864,95.437,540.788,538.67,0.0
54173.0,STARLINK-5242,PAYLOAD,2024-03-26 21:08:25,15.08817088,0.0001635,53.2173,323.6205,99.0516,261.0661,-0.00031134,-5.236e-05,0.0,0 STARLINK-5242,1 54173U 22141S   24086.88084867 -.00005236  00000-0 -31134-3 0  9992,2 54173  53.2173 323.6205 0001635  99.0516 261.0661 15.08817088 78259,6917.95,95.439,540.947,538.684,0.0
54173.0,STARLINK-5242,PAYLOAD,2024-03-26 22:43:49,15.08817776,0.0001432,53.2166,323.3254,95.2426,264.8729,-1.5999e-05,-5.42e-06,0.0,0 STARLINK-5242,1 54173U 22141S   24086.94709619 -.00000542  00000-0 -15999-4 0  9995,2 54173  53.2166 323.3254 0001432  95.2426 264.8729 15.08817776 78266,6917.948,95.439,540.804,538.823,0.0
54173.0,STARLINK-5242,PAYLOAD,2024-03-27 08:16:07,15.08835075,0.0001535,53.2172,321.5414,95.6777,264.439,-6.9359e-05,-1.392e-05,0.0,0 STARLINK-5242,1 54173U 22141S   24087.34453141 -.00001392  00000-0 -69359-4 0  9999,2 54173  53.2172 321.5414 0001535  95.6777 264.4390 15.08835075 78327,6917.895,95.438,540.822,538.699,0.0
54173.0,STARLINK-5242,PAYLOAD,2024-03-27 22:34:35,15.08841127,0.0001603,53.2173,318.8678,100.9762,259.141,0.00039026,5.929e-05,0.0,0 STARLINK-5242,1 54173U 22141S   24087.94068541  .00005929  00000-0  39026-3 0  9996,2 54173  53.2173 318.8678 0001603 100.9762 259.1410 15.08841127 78418,6917.877,95.437,540.851,538.633,0.0
54173.0,STARLINK-5242,PAYLOAD,2024-03-28 00:09:57,15.08851326,0.0001454,53.2162,318.5671,98.637,261.4787,0.00035096,5.304e-05,0.0,0 STARLINK-5242,1 54173U 22141S   24088.00692120  .00005304  00000-0  35096-3 0  9990,2 54173  53.2162 318.5671 0001454  98.6370 261.4787 15.08851326 78424,6917.846,95.437,540.717,538.705,0.0
54173.0,STARLINK-5242,PAYLOAD,2024-03-28 08:06:53,15.08857928,0.0001369,53.2161,317.0802,96.9793,263.1355,0.00070921,0.00011023,0.0,0 STARLINK-5242,1 54173U 22141S   24088.33812196  .00011023  00000-0  70921-3 0  9994,2 54173  53.2161 317.0802 0001369  96.9793 263.1355 15.08857928 78477,6917.826,95.436,540.638,538.744,0.0
54173.0,STARLINK-5242,PAYLOAD,2024-03-28 22:25:21,15.08856976,0.0001463,53.217,314.4052,101.208,258.9077,0.00022342,3.271e-05,0.0,0 STARLINK-5242,1 54173U 22141S   24088.93427604  .00003271  00000-0  22342-3 0  9996,2 54173  53.2170 314.4052 0001463 101.2080 258.9077 15.08856976 78564,6917.829,95.436,540.706,538.681,0.0
54173.0,STARLINK-5242,PAYLOAD,2024-03-29 01:36:07,15.08857317,0.000178,53.2164,313.8079,89.6773,270.4423,0.00026638,3.956e-05,0.0,0 STARLINK-5242,1 54173U 22141S   24089.06675586  .00003956  00000-0  26638-3 0  9997,2 54173  53.2164 313.8079 0001780  89.6773 270.4423 15.08857317 78585,6917.827,95.436,540.924,538.461,0.0
54173.0,STARLINK-5242,PAYLOAD,2024-03-29 07:57:40,15.08843846,0.000254,53.2163,312.6163,76.4847,283.6428,7.9355e-05,9.75e-06,0.0,0 STARLINK-5242,1 54173U 22141S   24089.33172337  .00000975  00000-0  79355-4 0  9996,2 54173  53.2163 312.6163 0002540  76.4847 283.6428 15.08843846 78624,6917.869,95.437,541.491,537.976,0.0
54173.0,STARLINK-5242,PAYLOAD,2024-03-29 22:16:09,15.08830303,0.0001507,53.2179,309.9455,83.1317,276.9846,-0.0003062,-5.157e-05,0.0,0 STARLINK-5242,1 54173U 22141S   24089.92788865 -.00005157  00000-0 -30620-3 0  9990,2 54173  53.2179 309.9455 0001507  83.1317 276.9846 15.08830303 78716,6917.91,95.438,540.818,538.732,0.0
54173.0,STARLINK-5242,PAYLOAD,2024-03-29 23:51:32,15.08832057,0.0001528,53.2174,309.6439,84.7582,275.3584,-0.00020915,-3.614e-05,0.0,0 STARLINK-5242,1 54173U 22141S   24089.99412797 -.00003614  00000-0 -20915-3 0  9997,2 54173  53.2174 309.6439 0001528  84.7582 275.3584 15.08832057 78725,6917.905,95.438,540.827,538.713,0.0
54173.0,STARLINK-5242,PAYLOAD,2024-03-30 07:48:28,15.08834248,0.0001353,53.2173,308.1604,87.7333,272.3814,-0.00017963,-3.145e-05,0.0,0 STARLINK-5242,1 54173U 22141S   24090.32532754 -.00003145  00000-0 -17963-3 0  9990,2 54173  53.2173 308.1604 0001353  87.7333 272.3814 15.08834248 78777,6917.898,95.438,540.699,538.827,0.0
54173.0,STARLINK-5242,PAYLOAD,2024-03-30 20:31:33,15.08841851,0.0001215,53.2164,305.7814,88.3185,271.7946,-3.8456e-05,-9e-06,0.0,0 STARLINK-5242,1 54173U 22141S   24090.85524674 -.00000900  00000-0 -38456-4 0  9997,2 54173  53.2164 305.7814 0001215  88.3185 271.7946 15.08841851 78858,6917.875,95.437,540.58,538.899,0.0
54173.0,STARLINK-5242,PAYLOAD,2024-03-31 07:39:15,15.08846441,0.0001285,53.2183,303.699,86.454,273.6599,0.0001085,1.44e-05,0.0,0 STARLINK-5242,1 54173U 22141S   24091.31892661  .00001440  00000-0  10850-3 0  9998,2 54173  53.2183 303.6990 0001285  86.4540 273.6599 15.08846441 78925,6917.861,95.437,540.615,538.837,0.0
54173.0,STARLINK-5242,PAYLOAD,2024-03-31 20:22:20,15.08848139,0.0001478,53.2176,301.3174,80.4952,279.6207,0.00031126,4.67e-05,0.0,0 STARLINK-5242,1 54173U 22141S   24091.84884840  .00004670  00000-0  31126-3 0  9993,2 54173  53.2176 301.3174 0001478  80.4952 279.6207 15.08848139 79009,6917.856,95.437,540.743,538.698,0.0
54173.0,STARLINK-5242,PAYLOAD,2024-03-31 23:33:06,15.08850651,0.0001479,53.2172,300.7229,81.3296,278.7863,0.00037279,5.652e-05,0.0,0 STARLINK-5242,1 54173U 22141S   24091.98132808  .00005652  00000-0  37279-3 0  9994,2 54173  53.2172 300.7229 0001479  81.3296 278.7863 15.08850651 79023,6917.848,95.437,540.736,538.69,0.0
54173.0,STARLINK-5242,PAYLOAD,2024-04-01 07:30:02,15.08839637,0.0001284,53.2177,299.2386,84.3515,275.7623,0.00016209,2.293e-05,0.0,0 STARLINK-5242,1 54173U 22141S   24092.31253222  .00002293  00000-0  16209-3 0  9994,2 54173  53.2177 299.2386 0001284  84.3515 275.7623 15.08839637 79072,6917.881,95.438,540.635,538.858,0.0
54173.0,STARLINK-5242,PAYLOAD,2024-04-01 13:51:35,15.08839156,0.0001702,53.2189,298.0493,85.4914,274.6272,9.6727e-05,1.252e-05,0.0,0 STARLINK-5242,1 54173U 22141S   24092.57749441  .00001252  00000-0  96727-4 0  9993,2 54173  53.2189 298.0493 0001702  85.4914 274.6272 15.08839156 79110,6917.883,95.438,540.925,538.571,0.0
54173.0,STARLINK-5242,PAYLOAD,2024-04-01 20:13:08,15.08838548,0.0001437,53.2177,296.8603,89.6553,270.4604,7.7671e-05,9.48e-06,0.0,0 STARLINK-5242,1 54173U 22141S   24092.84245451  .00000948  00000-0  77671-4 0  9993,2 54173  53.2177 296.8603 0001437  89.6553 270.4604 15.08838548 79157,6917.885,95.438,540.744,538.756,0.0
54173.0,STARLINK-5242,PAYLOAD,2024-04-02 20:03:55,15.08840631,0.0001262,53.2171,292.4008,90.9893,269.1244,0.0001463,2.041e-05,0.0,0 STARLINK-5242,1 54173U 22141S   24093.83605576  .00002041  00000-0  14630-3 0  9992,2 54173  53.2171 292.4008 0001262  90.9893 269.1244 15.08840631 79308,6917.878,95.438,540.616,538.87,0.0
54173.0,STARLINK-5242,PAYLOAD,2024-04-03 11:57:46,15.08839799,0.0001332,53.2166,289.4267,94.6439,265.4706,0.00018677,2.686e-05,0.0,0 STARLINK-5242,1 54173U 22141S   24094.49845717  .00002686  00000-0  18677-3 0  9998,2 54173  53.2166 289.4267 0001332  94.6439 265.4706 15.08839799 79406,6917.881,95.438,540.667,538.825,0.0
54173.0,STARLINK-5242,PAYLOAD,2024-04-03 19:54:42,15.08841343,0.0001302,53.2163,287.9397,93.6453,266.4688,0.00020415,2.963e-05,0.0,0 STARLINK-5242,1 54173U 22141S   24094.82965698  .00002963  00000-0  20415-3 0  9997,2 54173  53.2163 287.9397 0001302  93.6453 266.4688 15.08841343 79455,6917.876,95.437,540.642,538.841,0.0
54173.0,STARLINK-5242,PAYLOAD,2024-04-03 23:05:28,15.08843095,0.0001297,53.2163,287.3449,92.8818,267.2322,0.00020034,2.902e-05,0.0,0 STARLINK-5242,1 54173U 22141S   24094.96213597  .00002902  00000-0  20034-3 0  9996,2 54173  53.2163 287.3449 0001297  92.8818 267.2322 15.08843095 79478,6917.871,95.437,540.633,538.839,0.0
54173.0,STARLINK-5242,PAYLOAD,2024-04-04 05:27:01,15.08843615,0.000129,53.2162,286.1553,92.4341,267.6799,0.00017866,2.557e-05,0.0,0 STARLINK-5242,1 54173U 22141S   24095.22709511  .00002557  00000-0  17866-3 0  9997,2 54173  53.2162 286.1553 0001290  92.4341 267.6799 15.08843615 79515,6917.869,95.437,540.627,538.842,0.0
